C/2016 U1 (NEOWISE),h,01/13.8594/2017,46.3188,61.5387,162.8219,1.000406,0.323175,2000,17.0,4.0
# From MPC106345
C/2016 VZ18 (PANSTARRS),e,23.9779,98.9203,36.4104,163.7417,0.0004704,0.99441475,0.0000,03/05.5063/2017,2000,g 19.5,4.0
# From MPC106345
P/2016 WM48 (Lemmon),e,117.4478,59.9034,36.0829,8.165545,0.0422402,0.78387457,59.8640,01/11.0/2021,2000,g 15.0,4.0
# From MPC119995
C/2016 X1 (Lemmon),e,26.4531,256.4088,224.5005,1288,0.0000213,0.99413050,0.0000,04/28.5918/2019,2000,g  6.0,4.0
# From MPC108594
C/2017 A1 (PANSTARRS),e,49.7920,121.0447,2.0169,76.20324,0.0014816,0.96994043,1.9792,01/11.0/2021,2000,g 13.0,4.0
# From MPC108594
C/2017 A3 (Elenin),e,98.5301,97.8984,304.0014,43.44713,0.0034416,0.91147493,4.9598,01/11.0/2021,2000,g  9.5,4.0
# From MPC114598
C/2017 AB5 (PANSTARRS),e,32.4408,42.6409,78.3314,2368,0.0000086,0.99611024,0.0000,02/15.4633/2018,2000,g  5.5,4.0
# From MPC119995
C/2017 B3 (LINEAR),h,02/02.5865/2019,54.1697,2.1795,284.7939,1.001636,3.923012,2000,6.0,4.0
# From MPC103847
P/2017 B4 (PANSTARRS),e,20.0584,121.4578,11.0197,4.410520,0.1064068,0.36495152,359.9130,01/05.0/2017,2000,g 14.5,4.0
# From MPC104793
C/2017 C1 (NEOWISE),e,65.7594,357.5443,110.0710,20.58434,0.0105536,0.92716770,15.3401,01/11.0/2021,2000,g 18.0,4.0
# From MPC107685
C/2017 C2 (PANSTARRS),e,118.5860,249.7762,138.5922,96.25662,0.0010437,0.97483131,0.0000,01/21.4897/2017,2000,g 14.0,4.0
# From MPC104793
P/2017 D1 (Fuls),e,20.7558,82.1803,8.0495,4.829909,0.0928530,0.43627226,154.3159,01/11.0/2021,2000,g 14.0,4.0
# From MPC112391
C/2017 D2 (Barros),e,31.2575,330.9555,334.5261,4686,0.0000031,0.99946857,0.0000,07/14.8990/2017,2000,g 11.0,4.0
# From MPC114598
C/2017 D3 (ATLAS),h,04/27.3926/2017,125.5852,186.6780,340.8601,1.002207,4.972683,2000,8.0,4.0
# From MPC110495
P/2017 D4 (PANSTARRS),e,10.5300,264.9381,212.2833,7.562976,0.0473876,0.62833451,75.2897,01/11.0/2021,2000,g 13.0,4.0
# From MPC104794
C/2017 D5 (PANSTARRS),e,131.0503,92.7170,287.7249,114.4495,0.0008050,0.98113178,0.0000,01/09.5816/2017,2000,g 16.0,4.0
# From MPC106346
C/2017 E1 (Borisov),h,04/10.5998/2017,14.5712,142.5720,152.6937,1.003107,0.902260,2000,14.0,4.0
# From MPC109144
C/2017 E2 (Tsuchinshan),e,79.0797,11.6165,89.3595,21.52793,0.0098674,0.89083761,16.8279,01/11.0/2021,2000,g 11.5,4.0
# From MPC115882
C/2017 E3 (PANSTARRS),h,06/07.9449/2017,70.6391,220.7481,334.5160,1.006609,5.938324,2000,6.5,4.0
# From MPC105239
C/2017 E4 (Lovejoy),h,04/23.6055/2017,88.0706,223.0013,87.0641,1.001498,0.491027,2000,17.0,4.0
# From MPC105239
C/2017 E5 (Lemmon),e,122.6684,206.3628,306.9370,397.4226,0.0001244,0.99550060,0.0000,06/10.7733/2016,2000,g 13.0,4.0
# From MPC111769
C/2017 F1 (Lemmon),h,11/30.1122/2017,146.4627,158.7870,64.7551,1.003434,4.496271,2000,10.5,4.0
# From MPC114598
C/2017 F2 (PANSTARRS),h,11/27.3089/2017,42.5237,38.6756,135.0308,1.003538,6.931811,2000,7.5,4.0
# From MPC104794
P/2017 G1 (PANSTARRS),e,4.7743,249.6282,224.5340,7.287086,0.0501041,0.65292807,86.1599,01/11.0/2021,2000,g 13.5,4.0
# From MPC108595
P/2017 G2 (PANSTARRS),e,47.9460,79.7872,105.5544,8.067059,0.0430161,0.64813797,56.3346,01/11.0/2021,2000,g 13.0,4.0
# From MPC109144
C/2017 G3 (PANSTARRS),e,159.0543,279.4769,73.1267,314.1318,0.0001770,0.99175836,0.0000,04/15.8284/2017,2000,g 14.0,4.0
# From MPC115882
C/2017 K1 (PANSTARRS),h,03/17.5435/2018,154.0147,225.6697,4.4088,1.002382,7.289629,2000,7.0,4.0
# From MPC119995
C/2017 K2 (PANSTARRS),h,12/19.8186/2022,87.5483,88.2524,236.1801,1.000496,1.798149,2000,1.5,4.0
# From MPC106346
P/2017 K3 (Gasparovic),e,4.2734,354.2849,253.4858,5.582276,0.0747287,0.58048996,98.6932,01/11.0/2021,2000,g 14.5,4.0
# From MPC114598
C/2017 K4 (ATLAS),e,16.6803,298.8694,15.2457,28.53124,0.0064673,0.90706691,7.1044,01/11.0/2021,2000,g 10.0,4.0
# From MPC119995
C/2017 K5 (PANSTARRS),h,03/26.3631/2020,82.2387,102.3728,171.9822,1.006480,7.680015,2000,5.0,4.0
# From MPC114599
C/2017 K6 (Jacques),e,57.2472,85.0304,303.7539,1073,0.0000281,0.99813733,0.0000,01/03.4045/2018,2000,g 11.0,4.0
# From MPC110083
C/2017 M3 (PANSTARRS),e,77.5580,7.0173,110.3362,166.9399,0.0004569,0.97210386,0.0000,04/28.1155/2017,2000,g 10.5,4.0
# From MPC118093
C/2017 M4 (ATLAS),h,01/17.9178/2019,105.6477,65.8778,167.5924,1.001238,3.252811,2000,6.0,4.0
# From MPC118841
C/2017 M5 (TOTAS),h,06/04.1905/2018,15.8773,216.2823,92.7615,1.005394,5.994160,2000,6.5,4.0
# From MPC114599
C/2017 O1 (ASASSN),e,39.9084,25.7571,20.8425,357.0204,0.0001461,0.99581430,0.0000,10/14.9045/2017,2000,g 11.0,4.0
# From MPC114599
P/2017 P1 (PANSTARRS),e,7.6963,221.3989,122.3040,7.895539,0.0444254,0.31075343,41.6155,01/11.0/2021,2000,g 10.0,4.0
# From MPC114599
C/2017 P2 (PANSTARRS),e,50.0533,165.4827,132.3714,2168,0.0000098,0.99886247,0.0000,12/06.6511/2017,2000,g 10.0,4.0
# From MPC114599
P/2017 R1 (PANSTARRS),e,2.5740,143.6175,178.5902,4.135072,0.1172140,0.19566520,160.8001,01/11.0/2021,2000,g 13.5,4.0
# From MPC108595
C/2017 S2 (PANSTARRS),e,12.6770,62.3962,305.9656,20.54539,0.0105836,0.82422739,13.0200,01/11.0/2021,2000,g 13.0,4.0
# From MPC114599
C/2017 S3 (PANSTARRS),h,08/16.0412/2018,99.1495,171.2087,255.8387,1.000055,0.208005,2000,11.0,4.0
# From MPC114599
P/2017 S5 (ATLAS),e,11.8512,252.3741,99.8612,3.168143,0.1747821,0.31416309,220.6035,01/11.0/2021,2000,g 14.0,4.0
# From MPC109591
C/2017 S6 (Catalina),h,02/26.4276/2018,152.8674,131.0398,134.8179,1.000654,1.544087,2000,12.5,4.0
# From MPC114599
C/2017 S7 (Lemmon),h,05/25.1473/2017,124.2292,262.7791,187.5791,1.000316,7.607400,2000,7.0,4.0
# From MPC114599
P/2017 S8 (PANSTARRS),e,29.8201,191.6325,254.7536,2.779726,0.2126675,0.39202842,229.6418,01/11.0/2021,2000,g 16.0,4.0
# From MPC107050
P/2017 S9 (PANSTARRS),e,14.1439,146.2221,237.7102,3.153697,0.1759844,0.30514398,223.1054,01/11.0/2021,2000,g 17.0,4.0
# From MPC114600
C/2017 T1 (Heinze),e,96.8435,102.3347,96.9388,24170,0.0000003,0.99997589,0.0000,02/21.2094/2018,2000,g 14.5,4.0
# From MPC119996
C/2017 T2 (PANSTARRS),e,57.2278,64.3776,93.0023,3304,0.0000052,0.99951117,0.0000,05/04.9520/2020,2000,g  5.0,4.0
# From MPC114600
C/2017 T3 (ATLAS),e,88.0695,230.0907,246.8313,1229,0.0000229,0.99932861,0.0000,07/18.9124/2018,2000,g 10.0,4.0
# From MPC115882
P/2017 TW13 (Lemmon),e,44.8497,322.2957,120.0005,7.144510,0.0516114,0.70942680,48.2646,01/11.0/2021,2000,g 15.0,2.0
# From MPC114600
C/2017 U2 (Fuls),e,95.3890,149.7086,147.7937,3401,0.0000050,0.99802823,0.0000,08/28.2375/2017,2000,g  9.0,4.0
# From MPC114600
P/2017 U3 (PANSTARRS),e,15.9159,165.1076,296.9227,4.930364,0.0900296,0.09888562,57.1830,01/11.0/2021,2000,g 11.0,4.0
# From MPC114600
C/2017 U4 (PANSTARRS),h,09/23.5500/2018,158.2169,245.9444,159.0404,1.002544,7.721366,2000,7.0,4.0
# From MPC114600
C/2017 U5 (PANSTARRS),e,18.9729,163.0850,262.0326,16.87502,0.0142180,0.74393942,15.9179,01/11.0/2021,2000,g 12.0,4.0
# From MPC118841
C/2017 U7,h,09/14.0397/2019,142.5914,276.2448,326.2990,1.000868,6.422415,2000,8.3,2.0
# From MPC114600
C/2017 W2 (Leonard),e,98.1990,312.8416,169.0465,13.66400,0.0195136,0.71072094,22.7662,01/11.0/2021,2000,g 11.0,4.0
# From MPC114601
P/2017 W3 (Gibbs),e,18.1694,210.3056,327.7760,7.843446,0.0448687,0.50770782,46.9685,01/11.0/2021,2000,g 10.5,4.0
# From MPC115883
C/2017 X1 (PANSTARRS),e,31.3038,251.1298,283.2880,31.35219,0.0056144,0.85107349,5.2814,01/11.0/2021,2000,g 10.0,4.0
# From MPC117069
C/2017 Y1 (PANSTARRS),e,55.2667,307.5309,134.3155,1830,0.0000126,0.99797163,0.0000,08/31.1494/2017,2000,g 11.5,4.0
# From MPC118841
C/2017 Y2 (PANSTARRS),h,11/04.6665/2020,128.4126,65.9937,147.8799,1.000935,4.632116,2000,15.0,4.0
# From MPC111770
P/2017 Y3 (Leonard),e,27.5615,153.8491,67.5987,9.847265,0.0318956,0.87014566,33.9778,01/11.0/2021,2000,g 16.5,4.0
# From MPC114601
C/2018 A1 (PANSTARRS),e,53.6063,336.6505,96.2717,25.10295,0.0078364,0.90379829,9.2359,01/11.0/2021,2000,g 12.5,4.0
# From MPC119996
C/2018 A3 (ATLAS),e,139.5441,194.2940,86.3912,466.8448,0.0000977,0.99298363,0.0000,01/12.6031/2019,2000,g  8.5,4.0
# From MPC114601
C/2018 A4 (PANSTARRS),e,3.1483,97.6292,356.0434,12.20437,0.0231170,0.80335386,22.3891,01/11.0/2021,2000,g 14.0,4.0
# From MPC109147
P/2018 A5 (PANSTARRS),e,23.5805,87.8244,359.5739,5.635588,0.0736708,0.52226518,88.8433,01/11.0/2021,2000,g 15.0,4.0
# From MPC119996
C/2018 A6 (Gibbs),e,76.9836,340.3767,264.5584,15.31971,0.0164372,0.80293814,8.9873,01/11.0/2021,2000,g  9.0,4.0
# From MPC118841
C/2018 B1 (Lemmon),h,03/29.5096/2018,162.4200,133.1909,68.3101,1.000981,5.116088,2000,9.0,4.0
# From MPC114601
P/2018 C1 (Lemmon-Read),e,5.1223,270.3837,235.6751,5.654120,0.0733089,0.53332166,76.9637,01/11.0/2021,2000,g 13.5,4.0
# From MPC114601
C/2018 C2 (Lemmon),h,06/01.7284/2018,34.4594,91.1468,134.1135,1.000776,1.958106,2000,13.0,4.0
# From MPEC 2020-AA5
C/2018 DO4 (Lemmon),e,160.4740,251.1493,176.0083,25.74996,0.0075429,0.90651160,3.8595,01/11.0/2021,2000,g 11.0,4.0
# From MPC114602
C/2018 E1 (ATLAS),e,72.5136,146.8629,299.3997,53.95600,0.0024868,0.94991880,2.4861,01/11.0/2021,2000,g 10.5,4.0
# From MPC114602
C/2018 E2 (Barros),e,97.7103,67.1957,277.4689,3999,0.0000039,0.99901977,0.0000,12/24.0078/2017,2000,g 10.5,4.0
# From MPC114602
C/2018 EN4 (NEOWISE),e,81.6426,136.1437,35.0074,18.21960,0.0126735,0.92039689,12.0278,01/11.0/2021,2000,g 15.0,4.0
# From MPC114602
C/2018 EF9 (Lemmon),e,84.6415,172.5665,72.6201,553.9700,0.0000756,0.99718825,0.0000,05/22.8148/2018,2000,g 18.0,2.0
# From MPC115883
C/2018 F1 (Grauer),e,46.0770,177.2759,71.6348,285.4962,0.0002043,0.98951231,0.0000,12/13.7911/2018,2000,g 11.5,4.0
# From MPC110084
C/2018 F3 (Johnson),p,08/15.2314/2017,105.5348,293.0113,2.483172,173.0311,2000,13.0,4.0
# From MPC119996
C/2018 F4 (PANSTARRS),h,12/04.1443/2019,78.0939,26.5130,263.2285,1.001335,3.440270,2000,11.9,2.0
# From MPC114602
P/2018 H2 (PANSTARRS),e,7.3881,68.4039,119.9780,4.393360,0.1070308,0.54001357,116.0658,01/11.0/2021,2000,g 16.6,2.0
# From MPC114602
C/2018 K1 (Weiland),e,164.1959,260.0395,325.0736,29.95878,0.0060106,0.93718651,6.0720,01/11.0/2021,2000,g 14.9,4.0
# From MPC118094
